ONEWEB-0176             
1 48210U 21031A   24272.42516650 -.00000127  00000+0 -37762-3 0  9997
2 48210  87.8971  54.3327 0001763  97.0255 263.1075 13.14503088165971
ONEWEB-0184             
1 48211U 21031B   24272.62656846  .00000309  00000+0  79783-3 0  9991
2 48211  87.8972  54.2726 0002651 105.9344 254.2078 13.14503818165975
ONEWEB-0179             
1 48212U 21031C   24272.44419135  .00000024  00000+0  30992-4 0  9994
2 48212  87.8970  54.3154 0001747  92.8653 267.2676 13.14503829165994
ONEWEB-0180             
1 48213U 21031D   24272.62972198  .00000224  00000+0  56886-3 0  9999
2 48213  87.8974  54.2741 0001741  89.8531 270.2798 13.14504313165904
ONEWEB-0218             
1 48214U 21031E   24272.42356991 -.00000162  00000+0 -47079-3 0  9992
2 48214  87.8974  54.3168 0002768  99.1764 260.9679 13.14503824166036
ONEWEB-0209             
1 48215U 21031F   24272.41247002 -.00000039  00000+0 -14047-3 0  9996
2 48215  87.8971  54.3551 0001735  89.3414 270.7914 13.14504567166032
ONEWEB-0198             
1 48216U 21031G   24272.77720465  .00000197  00000+0  49794-3 0  9995
2 48216  87.8974  54.2867 0002101  93.3253 266.8117 13.14502351166174
ONEWEB-0189             
1 48217U 21031H   24272.40931140  .00000016  00000+0  76947-5 0  9992
2 48217  87.8973  54.3351 0002098  90.1664 269.9706 13.14502755165882
